ONEWEB-0233             
1 48795U 21045AE  25238.60089678 -.00003804  00000+0 -10139-1 0  9990
2 48795  87.9066 318.0168 0001570  95.1433 264.9876 13.15580681205564
ONEWEB-0190             
1 48796U 21045AF  25238.58838202  .00000158  00000+0  38464-3 0  9993
2 48796  87.9066 317.9824 0001573  73.1063 287.0239 13.15549021205630
ONEWEB-0236             
1 48797U 21045AG  25238.14946676  .00000165  00000+0  40433-3 0  9998
2 48797  87.9069 318.0797 0001922 101.0463 259.0883 13.15548580205462
ONEWEB-0248             
1 48798U 21045AH  25238.46636482 -.00000024  00000+0 -98363-4 0  9997
2 48798  87.9070 317.9706 0001259  91.2703 268.8571 13.15548613205664
ONEWEB-0225             
1 48799U 21045AJ  25238.48855299 -.00000186  00000+0 -52891-3 0  9993
2 48799  87.9067 317.9981 0001615  79.8357 280.2956 13.15548460205675
ONEWEB-0215             
1 48800U 21045AK  25238.15420213  .00000128  00000+0  30706-3 0  9999
2 48800  87.9073 318.0155 0001394  80.6544 279.4744 13.15547385205504
ONEWEB-0216             
1 48801U 21045AL  25238.46795562  .00000019  00000+0  16462-4 0  9999
2 48801  87.9060 317.9958 0002040  93.7799 266.3565 13.15549776205553
ONEWEB-0239             
1 48802U 21045AM  25238.47270280 -.00000027  00000+0 -10611-3 0  9996
2 48802  87.9065 318.0088 0001130  87.6167 272.5093 13.15548425205594
